[{"OBJECT_NAME":"NPSAT1","OBJECT_ID":"2019-036B","EPOCH":"2026-03-05T16:17:23.358912","MEAN_MOTION":14.73449137,"ECCENTRICITY":0.0008339,"INCLINATION":23.998,"RA_OF_ASC_NODE":171.3537,"ARG_OF_PERICENTER":119.2628,"MEAN_ANOMALY":240.8702,"EPHEMERIS_TYPE":0,"CLASSIFICATION_TYPE":"U","NORAD_CAT_ID":44340,"ELEMENT_SET_NO":999,"REV_AT_EPOCH":35720,"BSTAR":0.0013185,"MEAN_MOTION_DOT":8.996e-5,"MEAN_MOTION_DDOT":0},{"OBJECT_NAME":"FORMOSAT 7-3","OBJECT_ID":"2019-036E","EPOCH":"2026-03-05T15:50:45.181824","MEAN_MOTION":15.0887643,"ECCENTRICITY":0.0001328,"INCLINATION":23.9985,"RA_OF_ASC_NODE":170.6137,"ARG_OF_PERICENTER":117.0905,"MEAN_ANOMALY":242.9734,"EPHEMERIS_TYPE":0,"CLASSIFICATION_TYPE":"U","NORAD_CAT_ID":44343,"ELEMENT_SET_NO":999,"REV_AT_EPOCH":36758,"BSTAR":0.00043966,"MEAN_MOTION_DOT":7.458e-5,"MEAN_MOTION_DDOT":0},{"OBJECT_NAME":"FORMOSAT 7-1","OBJECT_ID":"2019-036L","EPOCH":"2026-03-05T13:07:59.457216","MEAN_MOTION":14.95990707,"ECCENTRICITY":9.54e-5,"INCLINATION":23.9993,"RA_OF_ASC_NODE":10.8524,"ARG_OF_PERICENTER":56.6967,"MEAN_ANOMALY":303.3625,"EPHEMERIS_TYPE":0,"CLASSIFICATION_TYPE":"U","NORAD_CAT_ID":44349,"ELEMENT_SET_NO":999,"REV_AT_EPOCH":36911,"BSTAR":0.00039134,"MEAN_MOTION_DOT":4.798e-5,"MEAN_MOTION_DDOT":0},{"OBJECT_NAME":"FORMOSAT 7-4","OBJECT_ID":"2019-036M","EPOCH":"2026-03-05T10:27:42.930720","MEAN_MOTION":14.95981411,"ECCENTRICITY":0.000131,"INCLINATION":23.9987,"RA_OF_ASC_NODE":73.6982,"ARG_OF_PERICENTER":68.3735,"MEAN_ANOMALY":291.6905,"EPHEMERIS_TYPE":0,"CLASSIFICATION_TYPE":"U","NORAD_CAT_ID":44350,"ELEMENT_SET_NO":999,"REV_AT_EPOCH":36851,"BSTAR":0.00035963,"MEAN_MOTION_DOT":4.432e-5,"MEAN_MOTION_DDOT":0},{"OBJECT_NAME":"FORMOSAT 7-2","OBJECT_ID":"2019-036N","EPOCH":"2026-03-05T12:36:06.418656","MEAN_MOTION":14.95989252,"ECCENTRICITY":9.82e-5,"INCLINATION":23.998,"RA_OF_ASC_NODE":127.4143,"ARG_OF_PERICENTER":75.8761,"MEAN_ANOMALY":284.1849,"EPHEMERIS_TYPE":0,"CLASSIFICATION_TYPE":"U","NORAD_CAT_ID":44351,"ELEMENT_SET_NO":999,"REV_AT_EPOCH":36804,"BSTAR":0.0003742,"MEAN_MOTION_DOT":4.601e-5,"MEAN_MOTION_DDOT":0},{"OBJECT_NAME":"FORMOSAT 7-6","OBJECT_ID":"2019-036Q","EPOCH":"2026-03-05T01:24:10.806624","MEAN_MOTION":14.95994852,"ECCENTRICITY":9.421e-5,"INCLINATION":23.998,"RA_OF_ASC_NODE":311.3886,"ARG_OF_PERICENTER":339.8489,"MEAN_ANOMALY":20.1974,"EPHEMERIS_TYPE":0,"CLASSIFICATION_TYPE":"U","NORAD_CAT_ID":44353,"ELEMENT_SET_NO":999,"REV_AT_EPOCH":36620,"BSTAR":0.0003500513,"MEAN_MOTION_DOT":4.324e-5,"MEAN_MOTION_DDOT":0},{"OBJECT_NAME":"FORMOSAT 7-5","OBJECT_ID":"2019-036V","EPOCH":"2026-03-05T16:52:02.249184","MEAN_MOTION":14.95996659,"ECCENTRICITY":8.17e-5,"INCLINATION":23.9971,"RA_OF_ASC_NODE":245.7905,"ARG_OF_PERICENTER":67.5921,"MEAN_ANOMALY":292.4666,"EPHEMERIS_TYPE":0,"CLASSIFICATION_TYPE":"U","NORAD_CAT_ID":44358,"ELEMENT_SET_NO":999,"REV_AT_EPOCH":36683,"BSTAR":0.00035836,"MEAN_MOTION_DOT":4.419e-5,"MEAN_MOTION_DDOT":0},{"OBJECT_NAME":"METEOR-M2 2","OBJECT_ID":"2019-038A","EPOCH":"2026-03-05T18:30:09.326592","MEAN_MOTION":14.24332162,"ECCENTRICITY":0.0001103,"INCLINATION":98.908,"RA_OF_ASC_NODE":50.5678,"ARG_OF_PERICENTER":11.7656,"MEAN_ANOMALY":348.3548,"EPHEMERIS_TYPE":0,"CLASSIFICATION_TYPE":"U","NORAD_CAT_ID":44387,"ELEMENT_SET_NO":999,"REV_AT_EPOCH":34657,"BSTAR":6.8376e-5,"MEAN_MOTION_DOT":1.12e-6,"MEAN_MOTION_DDOT":0},{"OBJECT_NAME":"COSMOS 2535","OBJECT_ID":"2019-039A","EPOCH":"2026-03-05T18:46:58.114848","MEAN_MOTION":14.9170064,"ECCENTRICITY":0.0008129,"INCLINATION":97.5895,"RA_OF_ASC_NODE":96.8544,"ARG_OF_PERICENTER":186.6767,"MEAN_ANOMALY":173.4346,"EPHEMERIS_TYPE":0,"CLASSIFICATION_TYPE":"U","NORAD_CAT_ID":44421,"ELEMENT_SET_NO":999,"REV_AT_EPOCH":36122,"BSTAR":0.00024947,"MEAN_MOTION_DOT":2.457e-5,"MEAN_MOTION_DDOT":0},{"OBJECT_NAME":"GLOBAL-4","OBJECT_ID":"2019-054E","EPOCH":"2026-03-05T04:38:01.745664","MEAN_MOTION":15.55001526,"ECCENTRICITY":0.00063583,"INCLINATION":45.0067,"RA_OF_ASC_NODE":112.2363,"ARG_OF_PERICENTER":340.096,"MEAN_ANOMALY":19.9685,"EPHEMERIS_TYPE":0,"CLASSIFICATION_TYPE":"U","NORAD_CAT_ID":44499,"ELEMENT_SET_NO":999,"REV_AT_EPOCH":36412,"BSTAR":0.00068376222,"MEAN_MOTION_DOT":0.00046904,"MEAN_MOTION_DDOT":0},{"OBJECT_NAME":"ZY-1 02D","OBJECT_ID":"2019-059A","EPOCH":"2026-03-05T18:24:54.897984","MEAN_MOTION":14.3544832,"ECCENTRICITY":0.0002589,"INCLINATION":98.3314,"RA_OF_ASC_NODE":129.8608,"ARG_OF_PERICENTER":81.1785,"MEAN_ANOMALY":278.9694,"EPHEMERIS_TYPE":0,"CLASSIFICATION_TYPE":"U","NORAD_CAT_ID":44528,"ELEMENT_SET_NO":999,"REV_AT_EPOCH":33950,"BSTAR":0.00012017,"MEAN_MOTION_DOT":3.03e-6,"MEAN_MOTION_DDOT":0},{"OBJECT_NAME":"TAURUS-1 (JINNIUZUO 1)","OBJECT_ID":"2019-059C","EPOCH":"2026-03-05T17:57:36.733248","MEAN_MOTION":14.70735359,"ECCENTRICITY":0.0008284,"INCLINATION":98.6301,"RA_OF_ASC_NODE":223.3146,"ARG_OF_PERICENTER":270.9057,"MEAN_ANOMALY":89.1199,"EPHEMERIS_TYPE":0,"CLASSIFICATION_TYPE":"U","NORAD_CAT_ID":44530,"ELEMENT_SET_NO":999,"REV_AT_EPOCH":34343,"BSTAR":0.00221,"MEAN_MOTION_DOT":0.00013452,"MEAN_MOTION_DDOT":0},{"OBJECT_NAME":"ZHUHAI-1 03B","OBJECT_ID":"2019-060C","EPOCH":"2026-03-05T16:53:26.450304","MEAN_MOTION":15.47688178,"ECCENTRICITY":0.0008665,"INCLINATION":97.5398,"RA_OF_ASC_NODE":217.448,"ARG_OF_PERICENTER":336.7317,"MEAN_ANOMALY":23.3539,"EPHEMERIS_TYPE":0,"CLASSIFICATION_TYPE":"U","NORAD_CAT_ID":44536,"ELEMENT_SET_NO":999,"REV_AT_EPOCH":36028,"BSTAR":0.00077203,"MEAN_MOTION_DOT":0.00040019,"MEAN_MOTION_DDOT":0},{"OBJECT_NAME":"ZHUHAI-1 03C","OBJECT_ID":"2019-060D","EPOCH":"2026-03-05T18:19:20.307072","MEAN_MOTION":15.70163952,"ECCENTRICITY":0.0011105,"INCLINATION":97.5514,"RA_OF_ASC_NODE":226.7394,"ARG_OF_PERICENTER":281.369,"MEAN_ANOMALY":78.6324,"EPHEMERIS_TYPE":0,"CLASSIFICATION_TYPE":"U","NORAD_CAT_ID":44537,"ELEMENT_SET_NO":999,"REV_AT_EPOCH":36086,"BSTAR":0.00085411,"MEAN_MOTION_DOT":0.00104507,"MEAN_MOTION_DDOT":0},{"OBJECT_NAME":"ZHUHAI-1 03D","OBJECT_ID":"2019-060E","EPOCH":"2026-03-05T17:05:14.867232","MEAN_MOTION":15.43491921,"ECCENTRICITY":0.0008142,"INCLINATION":97.5246,"RA_OF_ASC_NODE":210.4913,"ARG_OF_PERICENTER":322.7131,"MEAN_ANOMALY":37.355,"EPHEMERIS_TYPE":0,"CLASSIFICATION_TYPE":"U","NORAD_CAT_ID":44538,"ELEMENT_SET_NO":999,"REV_AT_EPOCH":36008,"BSTAR":0.00072773,"MEAN_MOTION_DOT":0.00032646,"MEAN_MOTION_DDOT":0},{"OBJECT_NAME":"ZHUHAI-1 03E","OBJECT_ID":"2019-060F","EPOCH":"2026-03-05T18:01:19.229664","MEAN_MOTION":15.37172876,"ECCENTRICITY":0.0006234,"INCLINATION":97.5458,"RA_OF_ASC_NODE":211.4902,"ARG_OF_PERICENTER":41.5515,"MEAN_ANOMALY":318.6202,"EPHEMERIS_TYPE":0,"CLASSIFICATION_TYPE":"U","NORAD_CAT_ID":44539,"ELEMENT_SET_NO":999,"REV_AT_EPOCH":35985,"BSTAR":0.00074066,"MEAN_MOTION_DOT":0.00026951,"MEAN_MOTION_DDOT":0},{"OBJECT_NAME":"ATLAS 5 CENTAUR DEB","OBJECT_ID":"2018-079BG","EPOCH":"2026-03-03T07:42:33.031296","MEAN_MOTION":1.77432274,"ECCENTRICITY":0.47481091,"INCLINATION":13.5109,"RA_OF_ASC_NODE":47.9612,"ARG_OF_PERICENTER":282.1315,"MEAN_ANOMALY":30.1913,"EPHEMERIS_TYPE":0,"CLASSIFICATION_TYPE":"U","NORAD_CAT_ID":44694,"ELEMENT_SET_NO":999,"REV_AT_EPOCH":4468,"BSTAR":0,"MEAN_MOTION_DOT":-1.58e-6,"MEAN_MOTION_DDOT":0}]
