NPSAT1                  
1 44340U 19036B   26064.67874258  .00008996  00000+0  13185-2 0  9990
2 44340  23.9980 171.3537 0008339 119.2628 240.8702 14.73449137357200
FORMOSAT 7-3            
1 44343U 19036E   26064.66024516  .00007458  00000+0  43966-3 0  9999
2 44343  23.9985 170.6137 0001328 117.0905 242.9734 15.08876430367580
FORMOSAT 7-1            
1 44349U 19036L   26064.54721594  .00004798  00000+0  39134-3 0  9998
2 44349  23.9993  10.8524 0000954  56.6967 303.3625 14.95990707369111
FORMOSAT 7-4            
1 44350U 19036M   26064.43591355  .00004432  00000+0  35963-3 0  9999
2 44350  23.9987  73.6982 0001310  68.3735 291.6905 14.95981411368516
FORMOSAT 7-2            
1 44351U 19036N   26064.52507429  .00004601  00000+0  37420-3 0  9997
2 44351  23.9980 127.4143 0000982  75.8761 284.1849 14.95989252368046
FORMOSAT 7-6            
1 44353U 19036Q   26064.05845841  .00004324  00000+0  35005-3 0  9999
2 44353  23.9980 311.3886 0000942 339.8489  20.1974 14.95994852366207
FORMOSAT 7-5            
1 44358U 19036V   26064.70280381  .00004419  00000+0  35836-3 0  9995
2 44358  23.9971 245.7905 0000817  67.5921 292.4666 14.95996659366839
METEOR-M2 2             
1 44387U 19038A   26064.77094128  .00000112  00000+0  68376-4 0  9990
2 44387  98.9080  50.5678 0001103  11.7656 348.3548 14.24332162346572
COSMOS 2535             
1 44421U 19039A   26064.78261707  .00002457  00000+0  24947-3 0  9999
2 44421  97.5895  96.8544 0008129 186.6767 173.4346 14.91700640361221
GLOBAL-4                
1 44499U 19054E   26064.19307576  .00046904  00000+0  68376-3 0  9990
2 44499  45.0067 112.2363 0006358 340.0960  19.9685 15.55001526364120
ZY-1 02D                
1 44528U 19059A   26064.76730206  .00000303  00000+0  12017-3 0  9995
2 44528  98.3314 129.8608 0002589  81.1785 278.9694 14.35448320339500
TAURUS-1 (JINNIUZUO 1)  
1 44530U 19059C   26064.74834182  .00013452  00000+0  22100-2 0  9996
2 44530  98.6301 223.3146 0008284 270.9057  89.1199 14.70735359343436
ZHUHAI-1 03B            
1 44536U 19060C   26064.70377836  .00040019  00000+0  77203-3 0  9992
2 44536  97.5398 217.4480 0008665 336.7317  23.3539 15.47688178360285
ZHUHAI-1 03C            
1 44537U 19060D   26064.76342948  .00104507  00000+0  85411-3 0  9998
2 44537  97.5514 226.7394 0011105 281.3690  78.6324 15.70163952360868
ZHUHAI-1 03D            
1 44538U 19060E   26064.71197763  .00032646  00000+0  72773-3 0  9998
2 44538  97.5246 210.4913 0008142 322.7131  37.3550 15.43491921360082
ZHUHAI-1 03E            
1 44539U 19060F   26064.75091701  .00026951  00000+0  74066-3 0  9997
2 44539  97.5458 211.4902 0006234  41.5515 318.6202 15.37172876359859
ATLAS 5 CENTAUR DEB     
1 44694U 18079BG  26062.32121564 -.00000158  00000+0  00000+0 0  9995
2 44694  13.5109  47.9612 4748109 282.1315  30.1913  1.77432274 44688
